[{"OBJECT_NAME":"INTELSAT 10 (IS-10)","OBJECT_ID":"2001-019A","EPOCH":"2026-03-06T21:25:51.284352","MEAN_MOTION":0.99042182,"ECCENTRICITY":0.000586,"INCLINATION":8.8315,"RA_OF_ASC_NODE":60.2943,"ARG_OF_PERICENTER":270.4959,"MEAN_ANOMALY":287.4666,"EPHEMERIS_TYPE":0,"CLASSIFICATION_TYPE":"U","NORAD_CAT_ID":26766,"ELEMENT_SET_NO":999,"REV_AT_EPOCH":4456,"BSTAR":0,"MEAN_MOTION_DOT":-2.67e-6,"MEAN_MOTION_DDOT":0},{"OBJECT_NAME":"INTELSAT 902 (IS-902)","OBJECT_ID":"2001-039A","EPOCH":"2026-03-06T22:16:35.443200","MEAN_MOTION":1.002716,"ECCENTRICITY":0.0004601,"INCLINATION":5.859,"RA_OF_ASC_NODE":73.0279,"ARG_OF_PERICENTER":274.9749,"MEAN_ANOMALY":100.693,"EPHEMERIS_TYPE":0,"CLASSIFICATION_TYPE":"U","NORAD_CAT_ID":26900,"ELEMENT_SET_NO":999,"REV_AT_EPOCH":8967,"BSTAR":0,"MEAN_MOTION_DOT":-2.85e-6,"MEAN_MOTION_DDOT":0},{"OBJECT_NAME":"INTELSAT 904 (IS-904)","OBJECT_ID":"2002-007A","EPOCH":"2026-03-05T07:00:05.535936","MEAN_MOTION":1.00273205,"ECCENTRICITY":0.0006148,"INCLINATION":6.6608,"RA_OF_ASC_NODE":70.43,"ARG_OF_PERICENTER":306.2151,"MEAN_ANOMALY":219.9159,"EPHEMERIS_TYPE":0,"CLASSIFICATION_TYPE":"U","NORAD_CAT_ID":27380,"ELEMENT_SET_NO":999,"REV_AT_EPOCH":5072,"BSTAR":0,"MEAN_MOTION_DOT":-2.31e-6,"MEAN_MOTION_DDOT":0},{"OBJECT_NAME":"DIRECTV 5 (TEMPO 1)","OBJECT_ID":"2002-023A","EPOCH":"2026-03-07T03:14:38.527296","MEAN_MOTION":1.00272788,"ECCENTRICITY":0.0003672,"INCLINATION":4.6171,"RA_OF_ASC_NODE":76.5852,"ARG_OF_PERICENTER":282.2433,"MEAN_ANOMALY":104.5771,"EPHEMERIS_TYPE":0,"CLASSIFICATION_TYPE":"U","NORAD_CAT_ID":27426,"ELEMENT_SET_NO":999,"REV_AT_EPOCH":8710,"BSTAR":0,"MEAN_MOTION_DOT":-5.9e-7,"MEAN_MOTION_DDOT":0},{"OBJECT_NAME":"INTELSAT 905 (IS-905)","OBJECT_ID":"2002-027A","EPOCH":"2026-03-05T04:29:38.664384","MEAN_MOTION":1.00273968,"ECCENTRICITY":0.00031737,"INCLINATION":6.4927,"RA_OF_ASC_NODE":71.0512,"ARG_OF_PERICENTER":279.539,"MEAN_ANOMALY":102.5539,"EPHEMERIS_TYPE":0,"CLASSIFICATION_TYPE":"U","NORAD_CAT_ID":27438,"ELEMENT_SET_NO":999,"REV_AT_EPOCH":5032,"BSTAR":0,"MEAN_MOTION_DOT":8.8e-7,"MEAN_MOTION_DDOT":0},{"OBJECT_NAME":"GALAXY 3C (G-3C)","OBJECT_ID":"2002-030A","EPOCH":"2026-03-06T10:05:04.941312","MEAN_MOTION":1.00271886,"ECCENTRICITY":0.00011657,"INCLINATION":3.469,"RA_OF_ASC_NODE":79.431,"ARG_OF_PERICENTER":23.5779,"MEAN_ANOMALY":117.5619,"EPHEMERIS_TYPE":0,"CLASSIFICATION_TYPE":"U","NORAD_CAT_ID":27445,"ELEMENT_SET_NO":999,"REV_AT_EPOCH":4546,"BSTAR":0,"MEAN_MOTION_DOT":-1.56e-6,"MEAN_MOTION_DDOT":0},{"OBJECT_NAME":"INTELSAT 906 (IS-906)","OBJECT_ID":"2002-041A","EPOCH":"2026-03-07T01:54:38.687616","MEAN_MOTION":1.00273263,"ECCENTRICITY":0.00032,"INCLINATION":5.5431,"RA_OF_ASC_NODE":74.1761,"ARG_OF_PERICENTER":261.4298,"MEAN_ANOMALY":282.0083,"EPHEMERIS_TYPE":0,"CLASSIFICATION_TYPE":"U","NORAD_CAT_ID":27513,"ELEMENT_SET_NO":999,"REV_AT_EPOCH":8600,"BSTAR":0,"MEAN_MOTION_DOT":1.1e-7,"MEAN_MOTION_DDOT":0},{"OBJECT_NAME":"GALAXY 13 (HORIZONS-1)","OBJECT_ID":"2003-044A","EPOCH":"2026-03-07T03:38:38.854176","MEAN_MOTION":1.00273807,"ECCENTRICITY":0.0002192,"INCLINATION":1.1541,"RA_OF_ASC_NODE":85.251,"ARG_OF_PERICENTER":264.6324,"MEAN_ANOMALY":79.6372,"EPHEMERIS_TYPE":0,"CLASSIFICATION_TYPE":"U","NORAD_CAT_ID":27954,"ELEMENT_SET_NO":999,"REV_AT_EPOCH":4554,"BSTAR":0,"MEAN_MOTION_DOT":1.3e-6,"MEAN_MOTION_DDOT":0},{"OBJECT_NAME":"INTELSAT 10-02","OBJECT_ID":"2004-022A","EPOCH":"2026-03-06T07:06:29.565792","MEAN_MOTION":1.00272108,"ECCENTRICITY":0.00011045,"INCLINATION":0.0174,"RA_OF_ASC_NODE":124.519,"ARG_OF_PERICENTER":267.8576,"MEAN_ANOMALY":237.2435,"EPHEMERIS_TYPE":0,"CLASSIFICATION_TYPE":"U","NORAD_CAT_ID":28358,"ELEMENT_SET_NO":999,"REV_AT_EPOCH":7952,"BSTAR":0,"MEAN_MOTION_DOT":-1.6e-7,"MEAN_MOTION_DDOT":0},{"OBJECT_NAME":"DIRECTV 8","OBJECT_ID":"2005-019A","EPOCH":"2026-03-07T03:22:38.728128","MEAN_MOTION":1.00272291,"ECCENTRICITY":0.0003339,"INCLINATION":0.0175,"RA_OF_ASC_NODE":111.4625,"ARG_OF_PERICENTER":251.1599,"MEAN_ANOMALY":93.8261,"EPHEMERIS_TYPE":0,"CLASSIFICATION_TYPE":"U","NORAD_CAT_ID":28659,"ELEMENT_SET_NO":999,"REV_AT_EPOCH":7604,"BSTAR":0,"MEAN_MOTION_DOT":-1.0e-8,"MEAN_MOTION_DDOT":0},{"OBJECT_NAME":"GALAXY 28 (G-28)","OBJECT_ID":"2005-022A","EPOCH":"2026-03-07T03:14:59.405856","MEAN_MOTION":1.00271399,"ECCENTRICITY":0.0002291,"INCLINATION":3.0352,"RA_OF_ASC_NODE":80.2124,"ARG_OF_PERICENTER":269.0232,"MEAN_ANOMALY":197.2658,"EPHEMERIS_TYPE":0,"CLASSIFICATION_TYPE":"U","NORAD_CAT_ID":28702,"ELEMENT_SET_NO":999,"REV_AT_EPOCH":5095,"BSTAR":0,"MEAN_MOTION_DOT":-2.02e-6,"MEAN_MOTION_DDOT":0},{"OBJECT_NAME":"GALAXY 16 (G-16)","OBJECT_ID":"2006-023A","EPOCH":"2026-03-07T03:06:38.820672","MEAN_MOTION":1.00273172,"ECCENTRICITY":0.0002677,"INCLINATION":0.037,"RA_OF_ASC_NODE":226.6602,"ARG_OF_PERICENTER":126.5464,"MEAN_ANOMALY":119.2793,"EPHEMERIS_TYPE":0,"CLASSIFICATION_TYPE":"U","NORAD_CAT_ID":29236,"ELEMENT_SET_NO":999,"REV_AT_EPOCH":7195,"BSTAR":0,"MEAN_MOTION_DOT":-1.29e-6,"MEAN_MOTION_DDOT":0},{"OBJECT_NAME":"DIRECTV 9S","OBJECT_ID":"2006-043A","EPOCH":"2026-03-07T03:06:38.820672","MEAN_MOTION":1.00272457,"ECCENTRICITY":0.0003183,"INCLINATION":2.1571,"RA_OF_ASC_NODE":82.1669,"ARG_OF_PERICENTER":274.4695,"MEAN_ANOMALY":113.6563,"EPHEMERIS_TYPE":0,"CLASSIFICATION_TYPE":"U","NORAD_CAT_ID":29494,"ELEMENT_SET_NO":999,"REV_AT_EPOCH":5036,"BSTAR":0,"MEAN_MOTION_DOT":-1.15e-6,"MEAN_MOTION_DDOT":0},{"OBJECT_NAME":"GALAXY 17 (G-17)","OBJECT_ID":"2007-016B","EPOCH":"2026-03-07T03:14:44.354112","MEAN_MOTION":1.00271756,"ECCENTRICITY":0.0003327,"INCLINATION":2.7133,"RA_OF_ASC_NODE":81.2046,"ARG_OF_PERICENTER":271.0116,"MEAN_ANOMALY":136.3117,"EPHEMERIS_TYPE":0,"CLASSIFICATION_TYPE":"U","NORAD_CAT_ID":31307,"ELEMENT_SET_NO":999,"REV_AT_EPOCH":6878,"BSTAR":0,"MEAN_MOTION_DOT":-2.08e-6,"MEAN_MOTION_DDOT":0},{"OBJECT_NAME":"DIRECTV 10","OBJECT_ID":"2007-032A","EPOCH":"2026-03-07T01:52:21.715104","MEAN_MOTION":0.98338259,"ECCENTRICITY":0.0006712,"INCLINATION":0.1386,"RA_OF_ASC_NODE":100.1155,"ARG_OF_PERICENTER":276.1228,"MEAN_ANOMALY":207.6766,"EPHEMERIS_TYPE":0,"CLASSIFICATION_TYPE":"U","NORAD_CAT_ID":31862,"ELEMENT_SET_NO":999,"REV_AT_EPOCH":4456,"BSTAR":0,"MEAN_MOTION_DOT":-7.1e-7,"MEAN_MOTION_DDOT":0},{"OBJECT_NAME":"INTELSAT 11 (IS-11)","OBJECT_ID":"2007-044B","EPOCH":"2026-03-07T03:38:38.854176","MEAN_MOTION":0.9905026,"ECCENTRICITY":0.0004797,"INCLINATION":3.2994,"RA_OF_ASC_NODE":79.9254,"ARG_OF_PERICENTER":207.5741,"MEAN_ANOMALY":146.4332,"EPHEMERIS_TYPE":0,"CLASSIFICATION_TYPE":"U","NORAD_CAT_ID":32253,"ELEMENT_SET_NO":999,"REV_AT_EPOCH":6743,"BSTAR":0,"MEAN_MOTION_DOT":3.6e-7,"MEAN_MOTION_DDOT":0},{"OBJECT_NAME":"HORIZONS-2","OBJECT_ID":"2007-063B","EPOCH":"2026-03-07T02:42:38.530944","MEAN_MOTION":1.00271076,"ECCENTRICITY":0.0002766,"INCLINATION":2.3387,"RA_OF_ASC_NODE":81.9182,"ARG_OF_PERICENTER":263.4343,"MEAN_ANOMALY":146.3283,"EPHEMERIS_TYPE":0,"CLASSIFICATION_TYPE":"U","NORAD_CAT_ID":32388,"ELEMENT_SET_NO":999,"REV_AT_EPOCH":6679,"BSTAR":0,"MEAN_MOTION_DOT":-2.55e-6,"MEAN_MOTION_DDOT":0}]
