INTELSAT 10 (IS-10)     
1 26766U 01019A   26065.89295468 -.00000267  00000+0  00000+0 0  9992
2 26766   8.8315  60.2943 0005860 270.4959 287.4666  0.99042182 44566
INTELSAT 902 (IS-902)   
1 26900U 01039A   26065.92818800 -.00000285  00000+0  00000+0 0  9999
2 26900   5.8590  73.0279 0004601 274.9749 100.6930  1.00271600 89673
INTELSAT 904 (IS-904)   
1 27380U 02007A   26064.29173074 -.00000231  00000+0  00000+0 0  9995
2 27380   6.6608  70.4300 0006148 306.2151 219.9159  1.00273205 50729
DIRECTV 5 (TEMPO 1)     
1 27426U 02023A   26066.13516814 -.00000059  00000+0  00000+0 0  9990
2 27426   4.6171  76.5852 0003672 282.2433 104.5771  1.00272788 87103
INTELSAT 905 (IS-905)   
1 27438U 02027A   26064.18725306  .00000088  00000+0  00000+0 0  9999
2 27438   6.4927  71.0512 0003173 279.5390 102.5539  1.00273968 50320
GALAXY 3C (G-3C)        
1 27445U 02030A   26065.42019608 -.00000156  00000+0  00000+0 0  9997
2 27445   3.4690  79.4310 0001165  23.5779 117.5619  1.00271886 45468
INTELSAT 906 (IS-906)   
1 27513U 02041A   26066.07961444  .00000011  00000+0  00000+0 0  9990
2 27513   5.5431  74.1761 0003200 261.4298 282.0083  1.00273263 86002
GALAXY 13 (HORIZONS-1)  
1 27954U 03044A   26066.15183859  .00000130  00000+0  00000+0 0  9990
2 27954   1.1541  85.2510 0002192 264.6324  79.6372  1.00273807 45543
INTELSAT 10-02          
1 28358U 04022A   26065.29617553 -.00000016  00000+0  00000+0 0  9997
2 28358   0.0174 124.5190 0001104 267.8576 237.2435  1.00272108 79529
DIRECTV 8               
1 28659U 05019A   26066.14072602 -.00000001  00000+0  00000+0 0  9997
2 28659   0.0175 111.4625 0003339 251.1599  93.8261  1.00272291 76045
GALAXY 28 (G-28)        
1 28702U 05022A   26066.13540979 -.00000202  00000+0  00000+0 0  9999
2 28702   3.0352  80.2124 0002291 269.0232 197.2658  1.00271399 50958
GALAXY 16 (G-16)        
1 29236U 06023A   26066.12961598 -.00000129  00000+0  00000+0 0  9995
2 29236   0.0370 226.6602 0002677 126.5464 119.2793  1.00273172 71955
DIRECTV 9S              
1 29494U 06043A   26066.12961598 -.00000115  00000+0  00000+0 0  9998
2 29494   2.1571  82.1669 0003183 274.4695 113.6563  1.00272457 50367
GALAXY 17 (G-17)        
1 31307U 07016B   26066.13523558 -.00000208  00000+0  00000+0 0  9999
2 31307   2.7133  81.2046 0003327 271.0116 136.3117  1.00271756 68786
DIRECTV 10              
1 31862U 07032A   26066.07802911 -.00000071  00000+0  00000+0 0  9997
2 31862   0.1386 100.1155 0006712 276.1228 207.6766  0.98338259 44567
INTELSAT 11 (IS-11)     
1 32253U 07044B   26066.15183859  .00000036  00000+0  00000+0 0  9997
2 32253   3.2994  79.9254 0004797 207.5741 146.4332  0.99050260 67437
HORIZONS-2              
1 32388U 07063B   26066.11294596 -.00000255  00000+0  00000+0 0  9998
2 32388   2.3387  81.9182 0002766 263.4343 146.3283  1.00271076 66793
